NORAD_CAT_ID,OBJECT_NAME,OBJECT_TYPE,EPOCH,MEAN_MOTION,ECCENTRICITY,INCLINATION,RA_OF_ASC_NODE,ARG_OF_PERICENTER,MEAN_ANOMALY,BSTAR,MEAN_MOTION_DOT,MEAN_MOTION_DDOT,TLE_LINE0,TLE_LINE1,TLE_LINE2,SEMIMAJOR_AXIS,PERIOD,APOGEE,PERIGEE,DECAYED
55744.0,STARLINK-5601,PAYLOAD,2023-10-16 10:43:00,14.98338939,0.0002896,69.9982,291.3965,267.2382,92.8445,0.00011017,1.222e-05,0.0,0 STARLINK-5601,1 55744U 23028D   23289.44653059  .00001222  00000-0  11017-3 0  9990,2 55744  69.9982 291.3965 0002896 267.2382  92.8445 14.98338939 34938,6950.165,96.106,574.043,570.017,0.0
55744.0,STARLINK-5601,PAYLOAD,2023-10-17 10:45:01,14.98337947,0.000257,69.9989,288.8715,256.7878,103.2995,-6.2706e-05,-8.41e-06,0.0,0 STARLINK-5601,1 55744U 23028D   23290.44793363 -.00000841  00000-0 -62706-4 0  9995,2 55744  69.9989 288.8715 0002570 256.7878 103.2995 14.98337947 35083,6950.168,96.106,573.82,570.247,0.0
55744.0,STARLINK-5601,PAYLOAD,2023-10-18 02:46:22,14.98327433,0.0002945,69.999,287.1896,267.4011,92.6811,-2.8009e-05,-4.27e-06,0.0,0 STARLINK-5601,1 55744U 23028D   23291.11554250 -.00000427  00000-0 -28009-4 0  9998,2 55744  69.9990 287.1896 0002945 267.4011  92.6811 14.98327433 35189,6950.201,96.107,574.113,570.019,0.0
55744.0,STARLINK-5601,PAYLOAD,2023-10-18 05:58:38,14.98336197,0.0002836,69.999,286.8522,264.4969,95.5866,7.3771e-05,7.87e-06,0.0,0 STARLINK-5601,1 55744U 23028D   23291.24905376  .00000787  00000-0  73771-4 0  9994,2 55744  69.9990 286.8522 0002836 264.4969  95.5866 14.98336197 35201,6950.174,96.107,574.01,570.068,0.0
55744.0,STARLINK-5601,PAYLOAD,2023-10-19 02:48:23,14.98327305,0.0002891,69.9987,284.663,268.7446,91.3382,0.00016334,1.856e-05,0.0,0 STARLINK-5601,1 55744U 23028D   23292.11693441  .00001856  00000-0  16334-3 0  9997,2 55744  69.9987 284.6630 0002891 268.7446  91.3382 14.98327305 35333,6950.201,96.107,574.076,570.057,0.0
55744.0,STARLINK-5601,PAYLOAD,2023-10-19 09:12:55,14.98334144,0.0002838,69.9987,283.9896,267.1902,92.8932,8.4065e-05,9.1e-06,0.0,0 STARLINK-5601,1 55744U 23028D   23292.38397269  .00000910  00000-0  84065-4 0  9992,2 55744  69.9987 283.9896 0002838 267.1902  92.8932 14.98334144 35370,6950.18,96.107,574.018,570.073,0.0
55744.0,STARLINK-5601,PAYLOAD,2023-10-19 17:13:35,14.9833154,0.0002913,69.9985,283.1466,270.011,90.0715,6.3197e-05,6.61e-06,0.0,0 STARLINK-5601,1 55744U 23028D   23292.71777427  .00000661  00000-0  63197-4 0  9993,2 55744  69.9985 283.1466 0002913 270.0110  90.0715 14.98331540 35423,6950.188,96.107,574.078,570.029,0.0
55744.0,STARLINK-5601,PAYLOAD,2023-10-20 09:14:56,14.9832954,0.000289,69.9984,281.4634,267.5512,92.5317,0.00010918,1.21e-05,0.0,0 STARLINK-5601,1 55744U 23028D   23293.38537429  .00001210  00000-0  10918-3 0  9996,2 55744  69.9984 281.4634 0002890 267.5512  92.5317 14.98329540 35524,6950.194,96.107,574.068,570.051,0.0
55744.0,STARLINK-5601,PAYLOAD,2023-10-21 09:16:57,14.98331585,0.0002829,69.9992,278.9392,271.1529,88.9305,6.1796e-05,6.44e-06,0.0,0 STARLINK-5601,1 55744U 23028D   23294.38677551  .00000644  00000-0  61796-4 0  9999,2 55744  69.9992 278.9392 0002829 271.1529  88.9305 14.98331585 35670,6950.188,96.107,574.019,570.087,0.0
55744.0,STARLINK-5601,PAYLOAD,2023-10-22 02:54:25,14.98337538,0.0002482,69.9992,277.0882,263.7212,96.3665,0.00014224,1.605e-05,0.0,0 STARLINK-5601,1 55744U 23028D   23295.12112777  .00001605  00000-0  14224-3 0  9997,2 55744  69.9992 277.0882 0002482 263.7212  96.3665 14.98337538 35783,6950.17,96.107,573.76,570.31,0.0
55744.0,STARLINK-5601,PAYLOAD,2023-10-22 09:18:57,14.98347615,0.0002254,69.9999,276.4155,261.138,98.9524,-9.3088e-05,-1.204e-05,0.0,0 STARLINK-5601,1 55744U 23028D   23295.38816529 -.00001204  00000-0 -93088-4 0  9994,2 55744  69.9999 276.4155 0002254 261.1380  98.9524 14.98347615 35825,6950.138,96.106,573.57,570.437,0.0
55744.0,STARLINK-5601,PAYLOAD,2023-10-22 15:43:30,14.98322727,0.0001958,70.0018,275.7421,281.0393,79.0545,0.00014068,1.586e-05,0.0,0 STARLINK-5601,1 55744U 23028D   23295.65521880  .00001586  00000-0  14068-3 0  9998,2 55744  70.0018 275.7421 0001958 281.0393  79.0545 14.98322727 35867,6950.215,96.107,573.441,570.72,0.0
55744.0,STARLINK-5601,PAYLOAD,2023-10-23 12:33:15,14.98318619,0.0002998,69.9999,273.5525,265.5551,94.5265,-1.567e-05,-2.8e-06,0.0,0 STARLINK-5601,1 55744U 23028D   23296.52310146 -.00000280  00000-0 -15670-4 0  9999,2 55744  69.9999 273.5525 0002998 265.5551  94.5265 14.98318619 35991,6950.228,96.108,574.177,570.009,0.0
55744.0,STARLINK-5601,PAYLOAD,2023-10-24 04:34:35,14.98341652,0.0002601,69.9994,271.869,265.6114,94.4748,4.9202e-05,4.94e-06,0.0,0 STARLINK-5601,1 55744U 23028D   23297.19068608  .00000494  00000-0  49202-4 0  9999,2 55744  69.9994 271.8690 0002601 265.6114  94.4748 14.98341652 36097,6950.157,96.106,573.83,570.214,0.0
55744.0,STARLINK-5601,PAYLOAD,2023-10-24 09:23:00,14.98323851,0.0002613,69.9995,271.364,262.7785,97.3077,0.0001966,2.253e-05,0.0,0 STARLINK-5601,1 55744U 23028D   23297.39097396  .00002253  00000-0  19660-3 0  9996,2 55744  69.9995 271.3640 0002613 262.7785  97.3077 14.98323851 36125,6950.212,96.107,573.893,570.261,0.0
55744.0,STARLINK-5601,PAYLOAD,2023-10-25 06:12:43,14.98349026,0.0001985,69.9998,269.1751,269.0878,91.0054,0.00058616,6.911e-05,0.0,0 STARLINK-5601,1 55744U 23028D   23298.25883106  .00006911  00000-0  58616-3 0  9993,2 55744  69.9998 269.1751 0001985 269.0878  91.0054 14.98349026 36252,6950.134,96.106,573.379,570.619,0.0
55744.0,STARLINK-5601,PAYLOAD,2023-10-26 03:02:29,14.98329123,0.0002525,69.9992,266.9872,264.7354,95.3517,7.3345e-05,7.82e-06,0.0,0 STARLINK-5601,1 55744U 23028D   23299.12673190  .00000782  00000-0  73345-4 0  9997,2 55744  69.9992 266.9872 0002525 264.7354  95.3517 14.98329123 36388,6950.196,96.107,573.816,570.306,0.0
55744.0,STARLINK-5601,PAYLOAD,2023-10-26 07:50:53,14.98328668,0.0002577,69.9992,266.4822,265.34,94.7465,0.00013735,1.546e-05,0.0,0 STARLINK-5601,1 55744U 23028D   23299.32701089  .00001546  00000-0  13735-3 0  9993,2 55744  69.9992 266.4822 0002577 265.3400  94.7465 14.98328668 36416,6950.197,96.107,573.853,570.271,0.0
55744.0,STARLINK-5601,PAYLOAD,2023-10-27 04:40:37,14.98337814,0.0002556,69.9994,264.2948,264.5122,95.5746,0.00014699,1.662e-05,0.0,0 STARLINK-5601,1 55744U 23028D   23300.19488346  .00001662  00000-0  14699-3 0  9998,2 55744  69.9994 264.2948 0002556 264.5122  95.5746 14.98337814 36540,6950.169,96.106,573.81,570.257,0.0
55744.0,STARLINK-5601,PAYLOAD,2023-10-27 07:52:53,14.98340618,0.0002524,69.9995,263.958,263.5711,96.5161,0.00014657,1.657e-05,0.0,0 STARLINK-5601,1 55744U 23028D   23300.32840114  .00001657  00000-0  14657-3 0  9996,2 55744  69.9995 263.9580 0002524 263.5711  96.5161 14.98340618 36567,6950.16,96.106,573.779,570.271,0.0
55744.0,STARLINK-5601,PAYLOAD,2023-10-27 22:18:07,14.98330063,0.0002459,70.0014,262.4449,270.0246,90.0632,5.2506e-05,5.34e-06,0.0,0 STARLINK-5601,1 55744U 23028D   23300.92924929  .00000534  00000-0  52506-4 0  9998,2 55744  70.0014 262.4449 0002459 270.0246  90.0632 14.98330063 36658,6950.193,96.107,573.767,570.349,0.0
55744.0,STARLINK-5601,PAYLOAD,2023-10-27 23:54:15,14.98328421,0.0002541,69.9999,262.2766,263.2652,96.8218,5.7607e-05,5.94e-06,0.0,0 STARLINK-5601,1 55744U 23028D   23300.99600967  .00000594  00000-0  57607-4 0  9991,2 55744  69.9999 262.2766 0002541 263.2652  96.8218 14.98328421 36664,6950.198,96.107,573.829,570.297,0.0
55744.0,STARLINK-5601,PAYLOAD,2023-10-28 14:19:27,14.98337807,0.0002651,69.9994,260.7603,269.701,90.3845,-0.00012466,-1.58e-05,0.0,0 STARLINK-5601,1 55744U 23028D   23301.59684789 -.00001580  00000-0 -12466-3 0  9993,2 55744  69.9994 260.7603 0002651 269.7010  90.3845 14.98337807 36756,6950.169,96.106,573.876,570.191,0.0
55744.0,STARLINK-5601,PAYLOAD,2023-10-28 22:20:07,14.98333782,0.0002858,69.9991,259.9177,270.1797,89.9035,4.6114e-06,-3.8e-07,0.0,0 STARLINK-5601,1 55744U 23028D   23301.93064767 -.00000038  00000-0  46114-5 0  9994,2 55744  69.9991 259.9177 0002858 270.1797  89.9035 14.98333782 36805,6950.181,96.107,574.033,570.06,0.0
55744.0,STARLINK-5601,PAYLOAD,2023-10-29 03:08:31,14.98335902,0.0002569,69.9996,259.4139,264.8477,95.2389,3.5337e-05,3.29e-06,0.0,0 STARLINK-5601,1 55744U 23028D   23302.13092558  .00000329  00000-0  35337-4 0  9992,2 55744  69.9996 259.4139 0002569 264.8477  95.2389 14.98335902 36838,6950.175,96.107,573.825,570.254,0.0
55744.0,STARLINK-5601,PAYLOAD,2023-10-29 14:21:27,14.98363837,0.0002449,70.0013,258.2341,276.8623,83.2258,-0.00062977,-7.605e-05,0.0,0 STARLINK-5601,1 55744U 23028D   23302.59823844 -.00007605  00000-0 -62977-3 0  9997,2 55744  70.0013 258.2341 0002449 276.8623  83.2258 14.98363837 36904,6950.088,96.105,573.655,570.251,0.0
55744.0,STARLINK-5601,PAYLOAD,2023-10-29 22:22:09,14.98318945,0.000274,70.0009,257.3925,264.2597,95.825,7.3223e-05,7.81e-06,0.0,0 STARLINK-5601,1 55744U 23028D   23302.93205415  .00000781  00000-0  73223-4 0  9996,2 55744  70.0009 257.3925 0002740 264.2597  95.8250 14.98318945 36958,6950.227,96.108,573.996,570.188,0.0
55744.0,STARLINK-5601,PAYLOAD,2023-10-30 04:46:41,14.9831995,0.0002048,70.0013,256.7201,255.8034,104.2898,7.6518e-05,8.2e-06,0.0,0 STARLINK-5601,1 55744U 23028D   23303.19909625  .00000820  00000-0  76518-4 0  9993,2 55744  70.0013 256.7201 0002048 255.8034 104.2898 14.98319950 36990,6950.224,96.108,573.512,570.666,0.0
55744.0,STARLINK-5601,PAYLOAD,2023-10-30 22:24:10,14.9832609,0.0002695,70.0006,254.8665,266.515,93.57,6.0972e-05,6.35e-06,0.0,0 STARLINK-5601,1 55744U 23028D   23303.93345313  .00000635  00000-0  60972-4 0  9994,2 55744  70.0006 254.8665 0002695 266.5150  93.5700 14.98326090 37100,6950.205,96.107,573.943,570.197,0.0
55744.0,STARLINK-5601,PAYLOAD,2023-10-31 04:48:42,14.98320197,0.0002482,70.0001,254.1939,260.4611,99.6268,0.00016109,1.829e-05,0.0,0 STARLINK-5601,1 55744U 23028D   23304.20049558  .00001829  00000-0  16109-3 0  9995,2 55744  70.0001 254.1939 0002482 260.4611  99.6268 14.98320197 37143,6950.223,96.108,573.813,570.363,0.0
